{
    "links": {
        "self": "http://www.neowsapp.com/rest/v1/neo/3893633?api_key=iIulBulltgU6a56xZRHN4H3l9WmuAYTsLGpBGhQ2"
    },
    "id": "3893633",
    "neo_reference_id": "3893633",
    "name": "(2019 WV3)",
    "designation": "2019 WV3",
    "nasa_jpl_url": "http://ssd.jpl.nasa.gov/sbdb.cgi?sstr=3893633",
    "absolute_magnitude_h": 26.5,
    "estimated_diameter": {
        "kilometers": {
            "estimated_diameter_min": 0.0133215567,
            "estimated_diameter_max": 0.0297879063
        },
        "meters": {
            "estimated_diameter_min": 13.3215566698,
            "estimated_diameter_max": 29.7879062798
        },
        "miles": {
            "estimated_diameter_min": 0.008277629,
            "estimated_diameter_max": 0.0185093411
        },
        "feet": {
            "estimated_diameter_min": 43.7058959846,
            "estimated_diameter_max": 97.7293544391
        }
    },
    "is_potentially_hazardous_asteroid": false,
    "close_approach_data": [
        {
            "close_approach_date": "2019-11-27",
            "close_approach_date_full": "2019-Nov-27 09:28",
            "epoch_date_close_approach": 1574846880000,
            "relative_velocity": {
                "kilometers_per_second": "7.3398534971",
                "kilometers_per_hour": "26423.4725895091",
                "miles_per_hour": "16418.5182876314"
            },
            "miss_distance": {
                "astronomical": "0.0493859053",
                "lunar": "19.2111171617",
                "kilometers": "7388026.240901711",
                "miles": "4590706.6322011718"
            },
            "orbiting_body": "Earth"
        },
        {
            "close_approach_date": "2082-01-20",
            "close_approach_date_full": "2082-Jan-20 14:57",
            "epoch_date_close_approach": 3536146620000,
            "relative_velocity": {
                "kilometers_per_second": "18.7413813974",
                "kilometers_per_hour": "67468.9730307343",
                "miles_per_hour": "41922.5960479027"
            },
            "miss_distance": {
                "astronomical": "0.3947344648",
                "lunar": "153.5517068072",
                "kilometers": "59051435.149669976",
                "miles": "36692860.3314626288"
            },
            "orbiting_body": "Earth"
        }
    ],
    "orbital_data": {
        "orbit_id": "4",
        "orbit_determination_date": "2019-12-13 20:29:30",
        "first_observation_date": "2019-11-26",
        "last_observation_date": "2019-12-07",
        "data_arc_in_days": 11,
        "observations_used": 17,
        "orbit_uncertainty": "8",
        "minimum_orbit_intersection": ".0432779",
        "jupiter_tisserand_invariant": "3.219",
        "epoch_osculation": "2458816.5",
        "eccentricity": ".5842730221214595",
        "semi_major_axis": "2.474472575877491",
        "inclination": "4.27934658873867",
        "ascending_node_longitude": "74.88138819494347",
        "orbital_period": "1421.747241576788",
        "perihelion_distance": "1.028705005812877",
        "perihelion_argument": "357.3708497734005",
        "aphelion_distance": "3.920240145942106",
        "perihelion_time": "2458820.556589080046",
        "mean_anomaly": "358.9728328453116",
        "mean_motion": ".2532095645923267",
        "equinox": "J2000",
        "orbit_class": {
            "orbit_class_type": "AMO",
            "orbit_class_description": "Near-Earth asteroid orbits similar to that of 1221 Amor",
            "orbit_class_range": "1.017 AU < q (perihelion) < 1.3 AU"
        }
    },
    "is_sentry_object": false
}